GOES 1 (SMS-C) [-]      
1 08366U 75100A   20357.51024855  .00000009  00000-0  00000-0 0  9992
2 08366   9.5432 302.6277 0003514 331.9666 241.3276  1.00235533164987
GOES 2 [-]              
1 10061U 77048A   20357.18785637 -.00000258  00000-0  00000-0 0  9992
2 10061  11.0286 313.0212 0015542   3.4549 172.7867  0.99400551 26360
GOES 3 [-]              
1 10953U 78062A   20357.44113796 -.00000017  00000-0  00000-0 0  9992
2 10953  11.3012 317.1391 0002390  20.4596 174.1450  0.99358074108638
GOES 4 [-]              
1 11964U 80074A   20357.50019539  .00000072  00000-0  00000-0 0  9998
2 11964  12.2082 320.9123 0034037  51.5558 123.9017  0.99228779107569
GOES 5 [-]              
1 12472U 81049A   20357.51531009 -.00000043  00000-0  00000+0 0  9996
2 12472  12.8364 331.7847 0002626 337.2742 214.8559  1.00206161102889
GOES 6 [-]              
1 14050U 83041A   20358.04698108 -.00000025  00000-0  00000+0 0  9997
2 14050  13.2879 336.9145 0001552  57.4027 318.1355  1.00221884195985
GOES 7 [-]              
1 17561U 87022A   20357.53156663 -.00000054  00000-0  00000+0 0  9990
2 17561  14.6618 353.2196 0006744  11.9240 172.1037  0.99890979106979
GOES 8 [-]              
1 23051U 94022A   20357.44864869 -.00000283  00000-0  00000-0 0  9998
2 23051  12.7085  28.1364 0006535 324.5282  50.6318  0.98907721104321
GOES 9 [-]              
1 23581U 95025A   20357.29849242 -.00000002  00000-0  00000-0 0  9990
2 23581  12.1966  28.2026 0002397  57.5283  14.7275  0.98798047 92972
GOES 10 [-]             
1 24786U 97019A   20357.26994556 -.00000054  00000-0  00000-0 0  9996
2 24786  10.8125  34.0073 0026435 194.9272 341.5985  0.99125197 86212
GOES 11 [-]             
1 26352U 00022A   20357.31663854  .00000060  00000-0  00000-0 0  9991
2 26352   7.5513  63.5160 0003692 221.9482 325.9013  0.99040989 32635
GOES 12 [-]             
1 26871U 01031A   20357.40667944 -.00000286  00000-0  00000-0 0  9993
2 26871   8.5613  51.6145 0007804 277.1440  42.9034  0.99139741 70906
EWS-G1 (GOES 13) [+]    
1 29155U 06018A   20357.24058668  .00000046  00000-0  00000-0 0  9993
2 29155   0.2999 106.8499 0007527 124.5140   7.8907  1.00272267 23281
GOES 14 [B]             
1 35491U 09033A   20357.52236243 -.00000084  00000-0  00000-0 0  9994
2 35491   0.1487 254.8776 0013003 329.8730 310.5971  1.00272266 42033
GOES 15 [B]             
1 36411U 10008A   20357.50506670  .00000064  00000-0  00000-0 0  9990
2 36411   0.3316  99.3483 0001577 334.5267  71.2023  1.00270948 39598
GOES 16 [+]             
1 41866U 16071A   20358.18230671 -.00000237  00000-0  00000+0 0  9998
2 41866   0.0437 186.7066 0001460 112.7293 143.1824  1.00269730 15031
GOES 17 [+]             
1 43226U 18022A   20357.49879125  .00000107  00000-0  00000-0 0  9990
2 43226   0.0517 234.2324 0000432  21.0717 238.5413  1.00273306 10334
